STARLINK-35056          
1 66266U 25247B   26068.61890192  .00036669  00000+0  12443-2 0  9999
2 66266  53.1582 191.7170 0001107  83.7759 276.3368 15.30195557 21027
GLOBAL-34               
1 68098U 26043A   26068.47466435  .00014018  00000+0  45822-3 0  9994
2 68098  42.0215  76.7399 0006884 289.2632  70.7460 15.31488019   538
